OBJECT_NAME,OBJECT_ID,EPOCH,MEAN_MOTION,ECCENTRICITY,INCLINATION,RA_OF_ASC_NODE,ARG_OF_PERICENTER,MEAN_ANOMALY,EPHEMERIS_TYPE,CLASSIFICATION_TYPE,NORAD_CAT_ID,ELEMENT_SET_NO,REV_AT_EPOCH,BSTAR,MEAN_MOTION_DOT,MEAN_MOTION_DDOT
POLYITAN-1,2014-033AJ,2026-07-12T13:29:41.292672,15.34156417,.00081225,98.0940,222.2395,71.5850,288.6273,0,U,40042,999,65748,.38348938E-3,.12606E-3,0
TIGRISAT,2014-033AK,2026-07-11T08:52:24.274560,14.85242878,.00489566,97.7858,341.8319,356.9649,3.1262,0,U,40043,999,64921,.10764196E-3,.887E-5,0
AEROCUBE 6A,2014-033AM,2026-07-12T01:39:06.568128,14.98323759,.00366184,97.7234,359.7579,291.7441,67.9886,0,U,40045,999,65034,.26138002E-3,.3093E-4,0
AEROCUBE 6B,2014-033AN,2026-07-12T10:44:01.525632,14.99783157,.00380306,97.7198,359.9758,279.7986,79.8944,0,U,40046,999,65054,.20913206E-3,.2562E-4,0
CANX-4,2014-034C,2026-07-12T13:12:43.994880,14.81308374,.00114817,98.3088,69.7910,292.3453,67.6541,0,U,40055,999,64828,.62729694E-4,.432E-5,0
CANX-5,2014-034D,2026-07-12T03:26:26.256480,14.81325415,.00114935,98.3091,69.4141,293.9901,66.0106,0,U,40056,999,63903,.66165812E-4,.459E-5,0
UKUBE-1,2014-037F,2026-07-12T13:14:11.381568,15.13926240,.00032997,98.4241,199.4960,92.2781,267.8825,0,U,40074,999,65239,.26996555E-3,.4813E-4,0
BRITE-PL2 (HEWELIUSZ),2014-049B,2026-07-11T21:01:11.261856,14.94681645,.0014633,97.9118,305.0696,33.0365,327.1766,0,U,40119,999,64513,.9874E-4,.1013E-4,0
AEROCUBE 5C,2015-058B,2026-07-11T23:30:30.300768,14.91564017,.01321165,64.7651,185.4549,53.6557,307.6664,0,U,40965,999,36935,.17688434E-3,.1921E-4,0
AEROCUBE 7,2015-058C,2026-07-11T08:52:31.063008,14.95890731,.01217529,64.7604,169.0605,52.2144,308.9921,0,U,40966,999,36957,.25063791E-3,.3081E-4,0
FOX-1A (AO-85),2015-058D,2026-07-12T10:30:06.709824,14.91077888,.01321369,64.7723,200.5056,46.8579,314.3491,0,U,40967,999,11733,.15568718E-3,.1646E-4,0
SINOD-D 1,2015-058E,2026-07-12T09:56:45.843936,14.96071501,.01208123,64.7730,179.9000,43.2193,317.8323,0,U,40968,999,12043,.23567524E-3,.2893E-4,0
SNAP-3 ALICE,2015-058G,2026-07-12T13:39:49.670496,15.66692149,.00242666,64.7492,15.7614,350.2229,9.8444,0,U,40970,999,12085,.98389138E-3,.106767E-2,0
LMRST-SAT,2015-058H,2026-07-12T11:11:41.677440,14.90693593,.01337169,64.7736,196.8023,48.8331,312.4224,0,U,40971,999,11732,.1507728E-3,.1577E-4,0
SNAP-3 EDDIE,2015-058J,2026-07-12T14:28:15.314592,15.68046846,.00253302,64.7397,6.1755,352.9467,7.1322,0,U,40972,999,12300,.10292531E-2,.118394E-2,0
PROPCUBE 3,2015-058K,2026-07-12T08:56:48.703488,14.94401916,.01255398,64.7666,173.8370,50.0770,311.1295,0,U,40973,999,11856,.20834553E-3,.2447E-4,0
BISONSAT,2015-058L,2026-07-12T03:47:32.340480,15.16878421,.00818451,64.7589,92.8676,37.1114,323.5630,0,U,40974,999,11940,.4146844E-3,.8738E-4,0
SNAP-3 JIMI,2015-058M,2026-07-12T06:48:11.626560,15.02582896,.01076367,64.7636,140.3519,45.4587,315.5258,0,U,40975,999,11799,.29976805E-3,.4349E-4,0
PROPCUBE 1 (FLORA),2015-058N,2026-07-12T12:16:55.526592,14.89319519,.01322776,64.7718,216.7418,51.1169,310.1653,0,U,40976,999,12003,.12066864E-3,.1172E-4,0
SINOD-D 3,2015-058P,2026-07-12T09:48:13.741632,14.94159880,.0120841,64.7701,197.0510,48.2227,312.9136,0,U,40977,999,11852,.19754107E-3,.2267E-4,0
RAVAN,2016-067B,2026-07-11T23:55:25.165920,15.57218470,.00018526,97.9848,85.4791,239.2173,120.8898,0,U,41849,999,53155,.51238912E-3,.37282E-3,0
CELTEE 1,2016-067C,2026-07-12T13:19:31.446912,15.19924917,.00022262,98.0643,61.8528,113.6381,246.5086,0,U,41850,999,52973,.13306907E-3,.2781E-4,0
OPTICUBE 04,2016-067D,2026-07-12T12:43:38.944704,15.09765361,.00163612,98.0676,47.1347,36.5014,323.7325,0,U,41851,999,52899,.87500462E-4,.1344E-4,0
AEROCUBE 8D,2016-067E,2026-07-12T13:20:16.721376,15.24746299,.00047164,98.0652,65.6587,63.3343,296.8375,0,U,41852,999,52993,.17253336E-3,.4191E-4,0
AEROCUBE 8C,2016-067F,2026-07-12T13:50:13.044768,15.25001010,.00045477,98.0525,62.8765,351.7275,8.3885,0,U,41853,999,52993,.18790249E-3,.4607E-4,0
CORVUS BC2,2017-042X,2026-07-12T10:29:08.942784,15.06449617,.00137355,97.4089,353.8106,32.7025,327.5051,0,U,42846,999,49086,.10977565E-3,.1563E-4,0
CORVUS BC1,2017-042Y,2026-07-12T10:17:22.464672,15.06612257,.0011892,97.4116,354.6330,10.4044,349.7427,0,U,42847,999,49089,.81622653E-4,.1151E-4,0
MAKERSAT 0,2017-073D,2026-07-12T13:54:40.082112,15.32941144,.01053102,97.4594,76.3068,181.5697,178.5231,0,U,43016,999,47035,.32530215E-3,.12278E-3,0
SIRION PATHFINDER-2,2018-099B,2026-07-11T16:35:34.223712,15.14760800,.00081287,97.4245,241.1675,204.5244,155.5602,0,U,43759,999,41633,.16707902E-3,.3035E-4,0
CORVUS BC4,2018-099K,2026-07-12T14:11:25.949184,15.12690316,.00065065,97.4057,235.8287,272.1266,87.9220,0,U,43767,999,41624,.15681337E-3,.2682E-4,0
